{
  "links" : {
    "next" : "https://api.nasa.gov/neo/rest/v1/feed?start_date=1997-02-23&end_date=1997-02-23&detailed=true&api_key=t0TVs3DtDT2H8Oy2Zy8m2eVrNsAVKAexjcZXUckd",
    "prev" : "https://api.nasa.gov/neo/rest/v1/feed?start_date=1997-02-21&end_date=1997-02-21&detailed=true&api_key=t0TVs3DtDT2H8Oy2Zy8m2eVrNsAVKAexjcZXUckd",
    "self" : "https://api.nasa.gov/neo/rest/v1/feed?start_date=1997-02-22&end_date=1997-02-22&detailed=true&api_key=t0TVs3DtDT2H8Oy2Zy8m2eVrNsAVKAexjcZXUckd"
  },
  "element_count" : 2,
  "near_earth_objects" : {
    "1997-02-22" : [ {
      "links" : {
        "self" : "https://api.nasa.gov/neo/rest/v1/neo/2443103?api_key=t0TVs3DtDT2H8Oy2Zy8m2eVrNsAVKAexjcZXUckd"
      },
      "neo_reference_id" : "2443103",
      "name" : "443103 (2013 WT67)",
      "nasa_jpl_url" : "http://ssd.jpl.nasa.gov/sbdb.cgi?sstr=2443103",
      "absolute_magnitude_h" : 18.0,
      "estimated_diameter" : {
        "kilometers" : {
          "estimated_diameter_min" : 0.6676594135,
          "estimated_diameter_max" : 1.4929318344
        },
        "meters" : {
          "estimated_diameter_min" : 667.6594134952,
          "estimated_diameter_max" : 1492.931834393
        },
        "miles" : {
          "estimated_diameter_min" : 0.4148641974,
          "estimated_diameter_max" : 0.9276645469
        },
        "feet" : {
          "estimated_diameter_min" : 2190.4837101717,
          "estimated_diameter_max" : 4898.07047955
        }
      },
      "is_potentially_hazardous_asteroid" : true,
      "close_approach_data" : [ {
        "close_approach_date" : "1997-02-22",
        "epoch_date_close_approach" : 856598400000,
        "relative_velocity" : {
          "kilometers_per_second" : "16.4357903143",
          "kilometers_per_hour" : "59168.8451313972",
          "miles_per_hour" : "36765.2193540062"
        },
        "miss_distance" : {
          "astronomical" : "0.216995843",
          "lunar" : "84.4113845825",
          "kilometers" : "32462118",
          "miles" : "20171024"
        },
        "orbiting_body" : "Earth"
      } ],
      "orbital_data" : {
        "orbit_id" : "115",
        "orbit_determination_date" : "2017-04-21 06:22:12",
        "orbit_uncertainty" : "0",
        "minimum_orbit_intersection" : ".0132207",
        "jupiter_tisserand_invariant" : "5.842",
        "epoch_osculation" : "2458000.5",
        "eccentricity" : ".1921846715300752",
        "semi_major_axis" : "1.034906113896623",
        "inclination" : "21.46918685795774",
        "ascending_node_longitude" : "322.780633928786",
        "orbital_period" : "384.5473791565931",
        "perihelion_distance" : ".8360130223329336",
        "perihelion_argument" : "98.98782142962837",
        "aphelion_distance" : "1.233799205460312",
        "perihelion_time" : "2458123.139534391006",
        "mean_anomaly" : "245.1890956126276",
        "mean_motion" : ".9361655273521002",
        "equinox" : "J2000"
      }
    }, {
      "links" : {
        "self" : "https://api.nasa.gov/neo/rest/v1/neo/3092253?api_key=t0TVs3DtDT2H8Oy2Zy8m2eVrNsAVKAexjcZXUckd"
      },
      "neo_reference_id" : "3092253",
      "name" : "(2000 EM26)",
      "nasa_jpl_url" : "http://ssd.jpl.nasa.gov/sbdb.cgi?sstr=3092253",
      "absolute_magnitude_h" : 22.6,
      "estimated_diameter" : {
        "kilometers" : {
          "estimated_diameter_min" : 0.0802703167,
          "estimated_diameter_max" : 0.1794898848
        },
        "meters" : {
          "estimated_diameter_min" : 80.2703167283,
          "estimated_diameter_max" : 179.4898847799
        },
        "miles" : {
          "estimated_diameter_min" : 0.049877647,
          "estimated_diameter_max" : 0.1115298092
        },
        "feet" : {
          "estimated_diameter_min" : 263.3540659348,
          "estimated_diameter_max" : 588.8775935812
        }
      },
      "is_potentially_hazardous_asteroid" : true,
      "close_approach_data" : [ {
        "close_approach_date" : "1997-02-22",
        "epoch_date_close_approach" : 856598400000,
        "relative_velocity" : {
          "kilometers_per_second" : "20.2775383359",
          "kilometers_per_hour" : "72999.1380092886",
          "miles_per_hour" : "45358.8255036049"
        },
        "miss_distance" : {
          "astronomical" : "0.2402452953",
          "lunar" : "93.4554214478",
          "kilometers" : "35940184",
          "miles" : "22332196"
        },
        "orbiting_body" : "Earth"
      } ],
      "orbital_data" : {
        "orbit_id" : "18",
        "orbit_determination_date" : "2017-04-06 09:17:05",
        "orbit_uncertainty" : "2",
        "minimum_orbit_intersection" : ".0190291",
        "jupiter_tisserand_invariant" : "7.068",
        "epoch_osculation" : "2458000.5",
        "eccentricity" : ".466784468696041",
        "semi_major_axis" : ".8170200816065704",
        "inclination" : "3.846181189681317",
        "ascending_node_longitude" : "345.1729764569392",
        "orbital_period" : "269.7413481235108",
        "perihelion_distance" : ".4356477968998514",
        "perihelion_argument" : "24.14851986474802",
        "aphelion_distance" : "1.198392366313289",
        "perihelion_time" : "2457987.176649437708",
        "mean_anomaly" : "17.78150155988975",
        "mean_motion" : "1.33461185133234",
        "equinox" : "J2000"
      }
    } ]
  }
}